0 SL-12 R/B(2)
1 36118U 09070H   13282.68278152  .00000029  00000-0  00000+0 0  5288
2 36118 064.2605 229.6182 0027193 191.2875 345.2529 02.13351413 29766
0 SL-12 R/B(2)
1 36118U 09070H   13285.73381764 -.00000006  00000-0  00000+0 0  5298
2 36118 064.2604 229.5118 0027197 191.5746 168.3611 02.13351331 29830
0 SL-12 R/B(2)
1 36118U 09070H   13287.93948319 -.00000034  00000-0  00000+0 0  5300
2 36118 064.2592 229.4366 0027215 191.2577 062.7680 02.13351575 29877
0 SL-12 R/B(2)
1 36118U 09070H   13290.61807912 -.00000036  00000-0  00000+0 0  5315
2 36118 064.2587 229.3441 0027196 191.2546 320.1076 02.13351586 29937
0 SL-12 R/B(2)
1 36118U 09070H   13292.82430936 -.00000016  00000-0  00000+0 0  5327
2 36118 064.2583 229.2680 0027156 191.1846 214.7068 02.13351565 29986
0 SL-12 R/B(2)
1 36118U 09070H   13295.34715007 -.00000000  00000-0  00000+0 0  5336
2 36118 064.2577 229.1810 0027144 191.1874 352.4119 02.13351502 30037
